COSMOS 2413 (712)       
1 28509U 04053B   16129.04850394  .00000045  00000-0  00000+0 0  9996
2 28509  63.1271 191.5304 0005336 176.3550 124.3068  2.13101814 88442
COSMOS 2419 (714)       
1 28915U 05050A   16130.41233664 -.00000008  00000-0  00000+0 0  9993
2 28915  65.3065  79.4723 0017309 346.9638 282.7810  2.13115773 80728
COSMOS 2425 (716)       
1 29670U 06062A   16130.07442292 -.00000036  00000-0  10000-3 0  9993
2 29670  65.6492 318.4684 0022044 351.6063  77.7275  2.13105003 72928
COSMOS 2426 (717)       
1 29671U 06062B   16130.00461024 -.00000035  00000-0  10000-3 0  9990
2 29671  65.6671 318.5520 0016724 157.0697  79.9026  2.13103022 72924
COSMOS 2424 (715)       
1 29672U 06062C   16129.76080712 -.00000035  00000-0  10000-3 0  9993
2 29672  65.6514 318.4887 0016163 155.8080  70.5242  2.13102250 72913
COSMOS 2433 (720)       
1 32275U 07052A   16130.13287845 -.00000009  00000-0  10000-3 0  9996
2 32275  65.3214  79.2519 0004584 288.0057  18.1697  2.13104893 66438
COSMOS 2432 (719)       
1 32276U 07052B   16129.43447103 -.00000012  00000-0  10000-3 0  9997
2 32276  65.3333  79.3404 0014042 332.8617 111.4033  2.13104316 66425
COSMOS 2434 (721)       
1 32393U 07065A   16129.15874530 -.00000034  00000-0  00000+0 0  9997
2 32393  65.2692 317.8412 0005841  92.7153  78.4467  2.13102867 65123
COSMOS 2436 (723)       
1 32395U 07065C   16129.28572675 -.00000034  00000-0  10000-3 0  9993
2 32395  65.2817 317.8784 0017970   0.7185 359.8743  2.13102923 65065
COSMOS 2443 (725)       
1 33379U 08046B   16129.26367492 -.00000013  00000-0  10000-3 0  9990
2 33379  65.2499  78.7019 0016299 192.0678  72.8542  2.13101475 59280
COSMOS 2456 (730)       
1 36111U 09070A   16130.16477801  .00000029  00000-0  00000+0 0  9993
2 36111  64.1818 197.4012 0004958 305.3693  86.9521  2.13102937 49812
COSMOS 2457 (733)       
1 36112U 09070B   16129.42742885  .00000038  00000-0  00000+0 0  9998
2 36112  64.1637 197.3545 0006745 173.9868 143.1081  2.13101598 49797
COSMOS 2458 (734)       
1 36113U 09070C   16130.09019429  .00000030  00000-0  10000-3 0  9992
2 36113  64.1689 197.3368 0001217 325.2187 187.7928  2.13102187 49815
COSMOS 2459 (731)       
1 36400U 10007A   16129.65835935 -.00000012  00000-0  10000-3 0  9992
2 36400  65.2293  78.4239 0030188 350.1757 177.6424  2.13102438 48156
COSMOS 2461 (735)       
1 36401U 10007B   16130.21825023 -.00000010  00000-0  10000-3 0  9992
2 36401  65.2226  78.3867 0005543  47.5778 100.3208  2.13102470 48166
COSMOS 2460 (732)       
1 36402U 10007C   16130.35062245 -.00000010  00000-0  10000-3 0  9997
2 36402  65.2130  78.3593 0002472 316.2331 335.1648  2.13101974 48160
COSMOS 2466 (738)       
1 37137U 10041A   16129.31773171 -.00000035  00000-0  10000-3 0  9999
2 37137  64.8513 317.9560 0018975 152.3511   6.9451  2.13110989 44220
COSMOS 2465 (737)       
1 37138U 10041B   16129.80980329 -.00000037  00000-0  00000+0 0  9996
2 37138  64.8693 318.0118 0034538 167.4354 188.9956  2.13101432 44220
COSMOS 2464 (736)       
1 37139U 10041C   16129.76663265 -.00000037  00000-0  00000+0 0  9999
2 37139  64.8752 318.0089 0024227  16.5628 128.6402  2.13102677 44236
COSMOS 2471 (701K)      
1 37372U 11009A   16129.43999604 -.00000013  00000-0  00000+0 0  9990
2 37372  65.2098  78.3398 0008404 247.1727 198.0935  2.13102878 40425
COSMOS 2474 (742)       
1 37829U 11055A   16129.67258324  .00000035  00000-0  00000+0 0  9994
2 37829  64.5056 197.8141 0009019 252.3802 343.9354  2.13101994 35794
COSMOS 2476 (744)       
1 37867U 11064A   16129.46079326  .00000037  00000-0  00000+0 0  9998
2 37867  64.4855 197.9037 0017953 247.2851 232.3727  2.13102109 35143
COSMOS 2477 (745)       
1 37868U 11064B   16130.16062410  .00000029  00000-0  00000+0 0  9995
2 37868  64.4943 197.9200 0015943 248.5793 227.2927  2.13101912 35113
COSMOS 2475 (743)       
1 37869U 11064C   16129.15965617  .00000041  00000-0  00000+0 0  9998
2 37869  64.5018 197.9415 0021277 274.6292 109.4380  2.13102019 35109
COSMOS 2478 (746)       
1 37938U 11071A   16130.31727786 -.00000010  00000-0  00000+0 0  9993
2 37938  65.2379  78.5310 0014236 245.8330 267.3418  2.13088534 34731
COSMOS 2485 (747)       
1 39155U 13019A   16129.76971898  .00000034  00000-0  00000+0 0  9997
2 39155  64.6552 197.8346 0018104 241.9994 159.8025  2.13102102 23628
COSMOS 2492 (754)       
1 39620U 14012A   16129.13331250 -.00000014  00000-0  10000-3 0  9995
2 39620  65.1009  78.3951 0017534 331.1417 335.5295  2.13103435 16557
COSMOS 2500 (755)       
1 40001U 14032A   16130.46173036 -.00000010  00000-0  00000+0 0  9997
2 40001  65.0420  78.3767 0005839 229.6153 239.9882  2.13103077 14803
COSMOS 2501 (702K)      
1 40315U 14075A   16128.98550743 -.00000035  00000-0  00000+0 0  9997
2 40315  64.6406 319.5047 0015775 234.9010 343.5951  2.13101607 11175
COSMOS 2514 (751)       
1 41330U 16008A   16129.07888774 -.00000014  00000-0  00000+0 0  9999
2 41330  64.8412  78.6696 0009157 231.2476  76.4141  2.13103632  1934
